{
  "type": "FeatureCollection",
  "features": [
    {
      "type": "Feature",
      "properties": {
        "norad_id": 44334,
        "name": "EUTELSAT 7C",
        "group": "eutelsat",
        "lat": -0.044857681337151505,
        "lon": 88.34411905041044,
        "alt_km": 35798.3048699893,
        "timestamp": "2025-12-17T23:38:06.534299+00:00",
        "meta_object_name": "EUTELSAT 7C",
        "meta_object_id": "2019-034B",
        "meta_epoch": "2025-12-16T15:06:04.817088",
        "meta_mean_motion": 1.00271584,
        "meta_eccentricity": 0.00030764,
        "meta_inclination": 0.0725,
        "meta_ra_of_asc_node": 176.9051,
        "meta_arg_of_pericenter": 71.4959,
        "meta_mean_anomaly": 70.6234,
        "meta_ephemeris_type": 0,
        "meta_classification_type": "U",
        "meta_norad_cat_id": 44334,
        "meta_element_set_no": 999,
        "meta_rev_at_epoch": 500,
        "meta_bstar": 0,
        "meta_mean_motion_dot": 7.2e-07,
        "meta_mean_motion_ddot": 0,
        "tle_line1": "1 44334U 19034B   25350.62922242  .00000072  00000+0  00000+0 0  9996",
        "tle_line2": "2 44334   0.0725 176.9051 0003076  71.4959  70.6234  1.00271584  5009"
      },
      "geometry": {
        "type": "Point",
        "coordinates": [
          88.34411905041044,
          -0.044857681337151505
        ]
      }
    },
    {
      "type": "Feature",
      "properties": {
        "norad_id": 44624,
        "name": "EUTELSAT 5 WEST B",
        "group": "eutelsat",
        "lat": 0.09289392888518785,
        "lon": 76.39394489432355,
        "alt_km": 35798.85111210833,
        "timestamp": "2025-12-17T23:38:06.534310+00:00",
        "meta_object_name": "EUTELSAT 5 WEST B",
        "meta_object_id": "2019-067A",
        "meta_epoch": "2025-12-17T08:10:00.645600",
        "meta_mean_motion": 1.00273495,
        "meta_eccentricity": 0.00031821,
        "meta_inclination": 0.0707,
        "meta_ra_of_asc_node": 329.3039,
        "meta_arg_of_pericenter": 297.2776,
        "meta_mean_anomaly": 297.1542,
        "meta_ephemeris_type": 0,
        "meta_classification_type": "U",
        "meta_norad_cat_id": 44624,
        "meta_element_set_no": 999,
        "meta_rev_at_epoch": 2261,
        "meta_bstar": 0,
        "meta_mean_motion_dot": -1.7e-07,
        "meta_mean_motion_ddot": 0,
        "tle_line1": "1 44624U 19067A   25351.34028525 -.00000017  00000+0  00000+0 0  9995",
        "tle_line2": "2 44624   0.0707 329.3039 0003182 297.2776 297.1542  1.00273495 22611"
      },
      "geometry": {
        "type": "Point",
        "coordinates": [
          76.39394489432355,
          0.09289392888518785
        ]
      }
    },
    {
      "type": "Feature",
      "properties": {
        "norad_id": 45027,
        "name": "EUTELSAT KONNECT",
        "group": "eutelsat",
        "lat": 0.018613007014471723,
        "lon": 88.56561523970406,
        "alt_km": 35791.63417572175,
        "timestamp": "2025-12-17T23:38:06.534322+00:00",
        "meta_object_name": "EUTELSAT KONNECT",
        "meta_object_id": "2020-005B",
        "meta_epoch": "2025-12-16T16:48:56.195424",
        "meta_mean_motion": 1.00270775,
        "meta_eccentricity": 0.000134,
        "meta_inclination": 0.0734,
        "meta_ra_of_asc_node": 96,
        "meta_arg_of_pericenter": 191.486,
        "meta_mean_anomaly": 57.5312,
        "meta_ephemeris_type": 0,
        "meta_classification_type": "U",
        "meta_norad_cat_id": 45027,
        "meta_element_set_no": 999,
        "meta_rev_at_epoch": 2250,
        "meta_bstar": 0,
        "meta_mean_motion_dot": 7.3e-07,
        "meta_mean_motion_ddot": 0,
        "tle_line1": "1 45027U 20005B   25350.70065041  .00000073  00000+0  00000+0 0  9991",
        "tle_line2": "2 45027   0.0734  96.0000 0001340 191.4860  57.5312  1.00270775 22507"
      },
      "geometry": {
        "type": "Point",
        "coordinates": [
          88.56561523970406,
          0.018613007014471723
        ]
      }
    },
    {
      "type": "Feature",
      "properties": {
        "norad_id": 49056,
        "name": "EUTELSAT QUANTUM",
        "group": "eutelsat",
        "lat": 0.02911127217421842,
        "lon": 129.0554538935016,
        "alt_km": 35798.32581910424,
        "timestamp": "2025-12-17T23:38:06.534334+00:00",
        "meta_object_name": "EUTELSAT QUANTUM",
        "meta_object_id": "2021-069B",
        "meta_epoch": "2025-12-17T13:33:13.735584",
        "meta_mean_motion": 1.00270893,
        "meta_eccentricity": 0.00033424,
        "meta_inclination": 0.0134,
        "meta_ra_of_asc_node": 14.3638,
        "meta_arg_of_pericenter": 263.1689,
        "meta_mean_anomaly": 59.922,
        "meta_ephemeris_type": 0,
        "meta_classification_type": "U",
        "meta_norad_cat_id": 49056,
        "meta_element_set_no": 999,
        "meta_rev_at_epoch": 1610,
        "meta_bstar": 0,
        "meta_mean_motion_dot": 1.51e-06,
        "meta_mean_motion_ddot": 0,
        "tle_line1": "1 49056U 21069B   25351.56474231  .00000151  00000+0  00000+0 0  9995",
        "tle_line2": "2 49056   0.0134  14.3638 0003342 263.1689  59.9220  1.00270893 16101"
      },
      "geometry": {
        "type": "Point",
        "coordinates": [
          129.0554538935016,
          0.02911127217421842
        ]
      }
    },
    {
      "type": "Feature",
      "properties": {
        "norad_id": 53765,
        "name": "EUTELSAT KONNECT VHTS",
        "group": "eutelsat",
        "lat": 0.011139238441557241,
        "lon": 84.08862577185846,
        "alt_km": 35795.51738466844,
        "timestamp": "2025-12-17T23:38:06.534346+00:00",
        "meta_object_name": "EUTELSAT KONNECT VHTS",
        "meta_object_id": "2022-110A",
        "meta_epoch": "2025-12-16T21:55:49.974240",
        "meta_mean_motion": 1.00270385,
        "meta_eccentricity": 0.00023075,
        "meta_inclination": 0.0652,
        "meta_ra_of_asc_node": 101.283,
        "meta_arg_of_pericenter": 141.3704,
        "meta_mean_anomaly": 174.8367,
        "meta_ephemeris_type": 0,
        "meta_classification_type": "U",
        "meta_norad_cat_id": 53765,
        "meta_element_set_no": 999,
        "meta_rev_at_epoch": 499,
        "meta_bstar": 0,
        "meta_mean_motion_dot": 4.1e-07,
        "meta_mean_motion_ddot": 0,
        "tle_line1": "1 53765U 22110A   25350.91377285  .00000041  00000+0  00000+0 0  9992",
        "tle_line2": "2 53765   0.0652 101.2830 0002307 141.3704 174.8367  1.00270385  4992"
      },
      "geometry": {
        "type": "Point",
        "coordinates": [
          84.08862577185846,
          0.011139238441557241
        ]
      }
    },
    {
      "type": "Feature",
      "properties": {
        "norad_id": 54048,
        "name": "EUTELSAT HOTBIRD 13F",
        "group": "eutelsat",
        "lat": 0.033191201327369683,
        "lon": 94.39099510665083,
        "alt_km": 35786.265208265264,
        "timestamp": "2025-12-17T23:38:06.534358+00:00",
        "meta_object_name": "EUTELSAT HOTBIRD 13F",
        "meta_object_id": "2022-134A",
        "meta_epoch": "2025-12-14T22:02:26.653056",
        "meta_mean_motion": 1.0027139,
        "meta_eccentricity": 0.00023413,
        "meta_inclination": 0.0492,
        "meta_ra_of_asc_node": 293.4772,
        "meta_arg_of_pericenter": 68.5165,
        "meta_mean_anomaly": 65.4415,
        "meta_ephemeris_type": 0,
        "meta_classification_type": "U",
        "meta_norad_cat_id": 54048,
        "meta_element_set_no": 999,
        "meta_rev_at_epoch": 1152,
        "meta_bstar": 0,
        "meta_mean_motion_dot": 1.07e-06,
        "meta_mean_motion_ddot": 0,
        "tle_line1": "1 54048U 22134A   25348.91836404  .00000107  00000+0  00000+0 0  9996",
        "tle_line2": "2 54048   0.0492 293.4772 0002341  68.5165  65.4415  1.00271390 11520"
      },
      "geometry": {
        "type": "Point",
        "coordinates": [
          94.39099510665083,
          0.033191201327369683
        ]
      }
    },
    {
      "type": "Feature",
      "properties": {
        "norad_id": 54225,
        "name": "EUTELSAT HOTBIRD 13G",
        "group": "eutelsat",
        "lat": -0.0004681965447139497,
        "lon": 94.34122626831154,
        "alt_km": 35784.57531102168,
        "timestamp": "2025-12-17T23:38:06.534370+00:00",
        "meta_object_name": "EUTELSAT HOTBIRD 13G",
        "meta_object_id": "2022-146A",
        "meta_epoch": "2025-12-16T23:41:28.142592",
        "meta_mean_motion": 1.00272,
        "meta_eccentricity": 0.00018519,
        "meta_inclination": 0.051,
        "meta_ra_of_asc_node": 235.253,
        "meta_arg_of_pericenter": 299.0172,
        "meta_mean_anomaly": 279.9588,
        "meta_ephemeris_type": 0,
        "meta_classification_type": "U",
        "meta_norad_cat_id": 54225,
        "meta_element_set_no": 999,
        "meta_rev_at_epoch": 564,
        "meta_bstar": 0,
        "meta_mean_motion_dot": 1.12e-06,
        "meta_mean_motion_ddot": 0,
        "tle_line1": "1 54225U 22146A   25350.98713128  .00000112  00000+0  00000+0 0  9999",
        "tle_line2": "2 54225   0.0510 235.2530 0001851 299.0172 279.9588  1.00272000  5646"
      },
      "geometry": {
        "type": "Point",
        "coordinates": [
          94.34122626831154,
          -0.0004681965447139497
        ]
      }
    }
  ]
}